OUFTI-1                 
1 41458U 16025C   21134.82030304  .00003301  00000-0  16176-3 0  9998
2 41458  98.1391 269.9263 0159188 172.5930 187.7705 15.08474184277408
E-ST@R-II               
1 41459U 16025D   21135.04013681  .00005400  00000-0  26402-3 0  9998
2 41459  98.1374 269.2611 0161409 174.7635 185.5289 15.07916031277386
AAUSAT 4                
1 41460U 16025E   21135.07082118  .00007239  00000-0  33777-3 0  9999
2 41460  98.1372 273.0034 0147699 159.1204 201.6091 15.10930718277677
AIST-2D (RS-48)         
1 41465U 16026B   21135.12423624  .00003009  00000-0  87495-4 0  9990
2 41465  97.1103  20.3708 0012554 128.5007  29.6507 15.36128016282311
SAMSAT-218D             
1 41466U 16026C   21135.03134863  .00023401  00000-0  35723-3 0  9999
2 41466  97.1586  43.4234 0007098  70.8162  54.8750 15.54410739283648
NUSAT-1 (FRESCO)        
1 41557U 16033B   21135.09967859  .00002856  00000-0  10289-3 0  9994
2 41557  97.3913 229.2299 0012520   1.7446 117.7023 15.29330248276433
NUSAT-2 (BATATA)        
1 41558U 16033C   21135.08130994  .00002737  00000-0  92622-4 0  9996
2 41558  97.4018 232.8759 0011548 356.1635 126.9598 15.31421433276617
CARTOSAT-2C             
1 41599U 16040A   21135.12353125  .00000870  00000-0  44341-4 0  9998
2 41599  97.4005 195.1357 0015274 130.0648 285.4049 15.19275477271456
SATHYABAMASAT           
1 41600U 16040B   21134.83610768  .00002819  00000-0  11195-3 0  9992
2 41600  97.2744 192.9169 0014833  97.1552 263.1374 15.26040251272026
LAPAN-A3                
1 41603U 16040E   21135.08324471  .00000455  00000-0  24133-4 0  9997
2 41603  97.2570 183.2775 0014854 117.1769 330.3086 15.20019006271516
BIROS                   
1 41604U 16040F   21134.75055167  .00000743  00000-0  34873-4 0  9996
2 41604  97.2654 188.3108 0013898  98.8539 261.4272 15.22529376271770
SWAYAM                  
1 41607U 16040J   21134.72252588  .00002623  00000-0  10543-3 0  9998
2 41607  97.2698 191.6381 0014456  97.5284 262.7598 15.25698062271907
BEESAT-4                
1 41619U 16040W   21134.61193636  .00002470  00000-0  10047-3 0  9996
2 41619  97.2717 191.6483 0012536  91.9715 268.2959 15.25374183259856
3CAT-2                  
1 41732U 16051B   21134.74641223  .00002815  00000-0  10317-3 0  9991
2 41732  97.3756  55.3161 0010896 267.1716 146.0898 15.28788407264357
PRATHAM                 
1 41783U 16059A   21134.88671138  .00000071  00000-0  22798-4 0  9997
2 41783  97.9670 186.1374 0033281 354.3608   5.7215 14.63135395247349
ALSAT 1N                
1 41789U 16059G   21134.88964572 -.00000109  00000-0 -11518-4 0  9992
2 41789  97.9685 189.7494 0027440 340.0279  19.9820 14.64416120247538
LISHUI 1-01             
1 41845U 16066E   21134.86215642  .00003477  00000-0  45167-3 0  9993
2 41845  98.7284 236.5270 0271116 223.2909 134.6674 14.58987478238502
CARTOSAT-2D             
1 41948U 17008A   21135.14873351  .00001131  00000-0  56858-4 0  9998
2 41948  97.4427 195.9455 0005599 275.2864  84.7682 15.19272785235328
NAYIF-1 (EO-88)         
1 42017U 17008BX  21134.90296933  .00002609  00000-0  98119-4 0  9991
2 42017  97.3171 203.1032 0004965 212.6970 147.3963 15.28017785236138
ZHUHAI-1 02 (CAS-4B)    
1 42759U 17034B   21135.10058030  .00000714  00000-0  56297-4 0  9996
2 42759  43.0196   4.4476 0009987 310.1250 181.0081 15.10192638216107
ZHUHAI-1 01 (CAS-4A)    
1 42761U 17034D   21135.09322205  .00000543  00000-0  45941-4 0  9999
2 42761  43.0196   3.5663 0010426 312.4088 177.5116 15.10274318216107
UCLSAT                  
1 42765U 17036A   21134.66073110  .00001993  00000-0  83251-4 0  9991
2 42765  97.2519 185.2846 0009199 302.0056  58.0288 15.24734877217028
NIUSAT                  
1 42766U 17036B   21134.93170294  .00001422  00000-0  63920-4 0  9991
2 42766  97.2529 182.0658 0013364 296.8586  63.1285 15.22637415216114
CARTOSAT-2E             
1 42767U 17036C   21135.17170924  .00004970  00000-0  23903-3 0  9996
2 42767  97.5057 194.3955 0007636 334.2479  85.9909 15.19235221215897
LITUANICASAT-2          
1 42768U 17036D   21135.10132984  .00003274  00000-0  12956-3 0  9996
2 42768  97.2592 186.4094 0011890 285.4132  74.5793 15.26088217216384
AALTO-1                 
1 42775U 17036L   21134.57495865  .00001161  00000-0  52808-4 0  9998
2 42775  97.2500 181.9873 0011921 297.7758  62.2270 15.22603825216042
URSA MAIOR              
1 42776U 17036M   21134.64888398  .00001266  00000-0  56894-4 0  9999
2 42776  97.2514 182.5052 0011707 296.8834  63.1206 15.22858213216076
COMPASS 2               
1 42777U 17036N   21134.93069829  .00002745  00000-0  11097-3 0  9990
2 42777  97.2577 186.4409 0009864 288.7702  71.2466 15.25527891216302
MAX VALIER SAT          
1 42778U 17036P   21134.87395622  .00001424  00000-0  62448-4 0  9997
2 42778  97.2578 184.5818 0010168 298.7941  61.2275 15.23513256216172
PEGASUS                 
1 42784U 17036V   21134.10611361  .00001757  00000-0  74612-4 0  9996
2 42784  97.2533 184.2894 0009938 306.1157  53.9160 15.24315657216129
NUDTSAT                 
1 42787U 17036Y   21134.94218773  .00002797  00000-0  11080-3 0  9995
2 42787  97.2574 187.3929 0010050 301.3557  58.6674 15.26193619216225
SUCHAI                  
1 42788U 17036Z   21135.04129143  .00002224  00000-0  91631-4 0  9996
2 42788  97.2537 186.1399 0009266 299.0354  60.9955 15.25085983216397
SKCUBE                  
1 42789U 17036AA  21134.80228226  .00002025  00000-0  84293-4 0  9997
2 42789  97.2530 185.6369 0009222 300.9362  59.0969 15.24831496216262
VZLUSAT-1               
1 42790U 17036AB  21134.87018938  .00002784  00000-0  11039-3 0  9992
2 42790  97.2559 187.3140 0008460 295.2431  64.7930 15.26167958216366
ROBUSTA-1B              
1 42792U 17036AD  21134.84189860  .00002080  00000-0  85924-4 0  9998
2 42792  97.2533 186.0414 0008778 300.9054  59.1321 15.25063568216304
D-SAT                   
1 42794U 17036AF  21134.61456270  .00000460  00000-0  44963-4 0  9995
2 42794  97.4634 156.2992 0124998 339.7629  19.8659 14.91549456212019
NORSAT 2                
1 42828U 17042D   21134.89803012  .00000284  00000-0  33368-4 0  9991
2 42828  97.4821   7.5682 0012644 256.5974 103.3836 14.91826911208736
TECHNOSAT               
1 42829U 17042E   21135.10647901  .00000246  00000-0  29909-4 0  9994
2 42829  97.4735   6.4085 0012579 257.5917 102.3895 14.91271936208714
2017-042F               
1 42830U 17042F   21135.09510768  .00000613  00000-0  64340-4 0  9990
2 42830  97.4853   8.8939 0012401 249.8117 110.1770 14.92821355208829
FLYING LAPTOP           
1 42831U 17042G   21134.87879415  .00000768  00000-0  82303-4 0  9993
2 42831  97.4750   6.4089 0012235 258.3891 101.5944 14.91291913208686
CORVUS BC2              
1 42846U 17042X   21134.63794449  .00000116  00000-0  16508-4 0  9997
2 42846  97.4772   8.3819 0008030 248.7643 111.2720 14.92283608208799
CORVUS BC1              
1 42847U 17042Y   21134.61103728  .00000233  00000-0  27913-4 0  9992
2 42847  97.4775   8.5880 0007716 247.7496 112.2906 14.92386588208796
SIMPL                   
1 42983U 98067NF  21135.09408622  .00007903  00000-0  80169-4 0  9996
2 42983  51.6373  68.8093 0002464 206.5258 153.5612 15.66290514202175
CZ-4C R/B               
1 43012U 17072C   21135.09597013  .00000057  00000-0  23053-4 0  9992
2 43012  98.7304 148.2132 0128667  94.7416 266.8487 14.56167332185884
RADFXSAT (FOX-1B)       
1 43017U 17073E   21134.65425960  .00001171  00000-0  94496-4 0  9997
2 43017  97.7091  39.9775 0256422  50.8686 311.5017 14.79489294188129
EAGLESAT 1              
1 43018U 17073F   21134.71250980  .00002080  00000-0  16117-3 0  9996
2 43018  97.7099  40.8658 0253180  47.5323 314.6990 14.80510271188056
ECAMSAT                 
1 43019U 98067NG  21134.94252061  .00025499  00000-0  15269-3 0  9992
2 43019  51.6388  37.8405 0002566 177.5513 182.5501 15.77654335284894
INS-1C                  
1 43116U 18004F   21135.12092905  .00001834  00000-0  76252-4 0  9990
2 43116  97.4143 209.9135 0007897 328.4467  31.6296 15.25042913185563
FLOCK 3P'-3             
1 43119U 18004J   21134.67109985  .00001229  00000-0  53383-4 0  9997
2 43119  97.4136 208.4142 0008980 338.7459  21.3404 15.24183235185434
FLOCK 3P'-2             
1 43120U 18004K   21135.09929700  .00000970  00000-0  43148-4 0  9991
2 43120  97.4143 208.6493 0008975 337.7364  22.3483 15.23871677185489
FLOCK 3P'-1             
1 43121U 18004L   21134.67176579  .00004126  00000-0  15899-3 0  9991
2 43121  97.4134 209.9397 0007963 332.5542  27.5275 15.26880153185460
FLOCK 3P'-4             
1 43122U 18004M   21135.16100205  .00000961  00000-0  42704-4 0  9999
2 43122  97.4150 208.8108 0008827 339.8210  20.2677 15.23903580185495
MICROMAS-2A             
1 43131U 18004W   21134.77354564  .00003240  00000-0  12431-3 0  9990
2 43131  97.4117 210.9128 0007318 332.0754  28.0091 15.27186657185629
PICSAT                  
1 43132U 18004X   21134.54633013  .00001964  00000-0  79795-4 0  9993
2 43132  97.4094 209.3940 0008170 338.1970  21.8919 15.25732781185513
CNUSAIL-1               
1 43133U 18004Y   21134.74894308  .00001402  00000-0  59451-4 0  9996
2 43133  97.4074 208.6694 0008436 339.6327  20.4573 15.24762934185497
2018-004Z               
1 43134U 18004Z   21134.98153610  .00001750  00000-0  72213-4 0  9994
2 43134  97.4090 209.5360 0008126 337.7303  22.3581 15.25357913185550
FOX-1D (AO-92)          
1 43137U 18004AC  21134.93898863  .00001573  00000-0  65606-4 0  9999
2 43137  97.4076 209.3123 0008018 339.9775  20.1147 15.25153260185541
STEP CUBE LAB           
1 43138U 18004AD  21134.75697624  .00002732  00000-0  10653-3 0  9991
2 43138  97.4116 210.7638 0007439 337.4148  22.6762 15.26788441185611
XIAOXIANG-2             
1 43155U 18008A   21135.10930010  .00001879  00000-0  11156-3 0  9993
2 43155  97.4036 201.0795 0019143  85.8138 333.9153 15.12371101183038
